EARTHCARE               
1 59908U 24101A   24227.26663968  .00036633  00000+0  52078-3 0  9997
2 59908  96.9848 353.6635 0002743 233.8684 126.2318 15.56297611 12018
